# From MPEC 2024-Q14
P/1894 F1 (Denning),e,4.0270,20.6113,109.4529,4.421273,0.1060188,0.64693220,312.0314,09/08.0/2024,2000,g 15.5,4.0
# From NK 1615
P/1996 R2 (Lagerkvist),e,2.5994,40.0548,333.4542,3.773448,0.1344610,0.31444570,273.2069,09/08.0/2024,2000,g 11.5,4.0
# From MPC 75703
P/1998 VS24 (LINEAR),e,5.0284,159.0555,244.7975,4.521922,0.1024990,0.24367277,247.8372,09/08.0/2024,2000,g 13.0,2.0
# From unp
P/1999 D1 (Hermann),e,21.2550,348.7601,173.8393,5.785248,0.0708306,0.71316366,306.0027,09/08.0/2024,2000,g  9.0,4.0
# From unp
P/1999 R1 (SOHO),e,11.4300,351.6167,56.8462,2.508382,0.2480925,0.97998079,0.0000,08/21.0328/2023,2000,g  9.0,4.0
# From NK 731
P/1999 RO28 (LONEOS),e,7.5666,137.8546,231.3414,3.425719,0.1554449,0.67230261,295.1396,09/08.0/2024,2000,g 20.0,2.0
# From MPC 75704
P/1999 XN120 (Catalina),e,5.0295,285.2533,161.6701,4.179834,0.1153362,0.21101977,305.7691,09/08.0/2024,2000,g 13.5,2.0
# From unp
P/2000 QJ46 (LINEAR),e,4.4329,158.1033,222.2722,5.790784,0.0707291,0.67548488,250.3964,09/08.0/2024,2000,g  9.0,4.0
# From NK 744
P/2000 R2 (LINEAR),e,11.6799,160.2829,176.5884,3.468668,0.1525668,0.53075634,291.3035,09/08.0/2024,2000,g 18.0,4.0
# From unp
P/2001 BB50 (LINEAR-NEAT),e,10.3274,351.1515,193.3493,5.751942,0.0714467,0.58602368,263.2340,09/08.0/2024,2000,g 13.0,4.0
# From MPC 43019
P/2001 H5 (NEAT),e,8.3702,328.6536,224.6219,6.095346,0.0654948,0.59865374,213.4529,09/08.0/2024,2000,g 12.0,4.0
# From MPEC 2023-UR6
P/2002 EJ57 (LINEAR),e,4.9854,330.2463,167.2596,6.456744,0.0600736,0.59347101,136.5557,09/08.0/2024,2000,g 12.5,4.0
# From MPC 75007
C/2002 VQ94 (LINEAR),e,70.6948,35.1437,99.8212,185.7207,0.0003894,0.96357305,2.6431,09/08.0/2024,2000,g  9.5,2.0
# From MPC 50354
P/2003 F2 (NEAT),e,11.6638,358.9090,192.4870,6.510385,0.0593327,0.54158292,104.4096,09/08.0/2024,2000,g 16.5,2.0
# From MPC 50139
P/2003 QX29 (NEAT),e,11.3992,264.5334,37.6664,8.003474,0.0435298,0.47161177,345.4997,09/08.0/2024,2000,g  8.5,4.0
# From MPC105235
P/2003 T12 (SOHO),e,11.0251,174.5773,219.7854,2.584107,0.2372675,0.77026298,15.7175,09/08.0/2024,2000,g 17.0,4.0
# From unp
P/2003 U3 (NEAT),e,7.0162,347.9311,357.0363,5.042648,0.0870394,0.51061462,313.5537,09/08.0/2024,2000,g 12.0,4.0
# From MPEC 2022-YN2
P/2004 FY140 (LINEAR),e,2.1623,327.2653,254.1379,4.969907,0.0889573,0.19236301,280.2324,09/08.0/2024,2000,g 12.5,2.0
# From unp
P/2004 H2 (Larsen),e,11.7746,131.3747,104.6970,4.527017,0.1023260,0.41685645,40.8576,09/08.0/2024,2000,g  9.0,4.0
# From MPC 53304
P/2004 R3 (LINEAR-NEAT),e,12.7955,305.1218,37.4291,4.751460,0.0951620,0.25438242,103.4263,09/08.0/2024,2000,g 14.5,4.0
# From MPC 75705
P/2004 V5 (LINEAR-Hill),e,19.3455,47.7408,87.3013,8.025377,0.0433517,0.44756530,313.8864,09/08.0/2024,2000,g  8.0,4.0
# From MPC 75705
P/2004 V5-B (LINEAR-Hill),e,19.3456,47.7411,87.3048,8.025724,0.0433489,0.44758693,313.8474,09/08.0/2024,2000,g  8.0,4.0
# From MPC 54164
P/2005 E1 (Tubbiolo),e,4.2612,335.5156,193.8796,7.064807,0.0524872,0.37682321,18.1702,09/08.0/2024,2000,g 10.0,4.0
# From unp
P/2005 GF8 (LONEOS),e,1.1658,312.8394,285.4074,5.757216,0.0713486,0.51389335,129.7881,09/08.0/2024,2000,g  9.0,4.0
# From MPC 79019
P/2005 J1 (McNaught),e,31.7407,268.8004,338.9172,3.573839,0.1458820,0.56919460,315.2540,09/08.0/2024,2000,g 16.5,4.0
# From MPC 74246
P/2005 L1 (McNaught),e,7.8139,133.0486,155.1380,3.987426,0.1237842,0.23186039,126.2296,09/08.0/2024,2000,g  9.5,4.0
# From MPC 75706
P/2005 S2 (Skiff),e,3.1375,161.3473,229.8408,7.989689,0.0436425,0.19879332,290.2357,09/08.0/2024,2000,g  7.5,4.0
# From MPEC 2024-R78
P/2005 SB216 (LONEOS),e,24.1176,1.1163,83.1970,7.158525,0.0514599,0.46587843,334.6177,09/08.0/2024,2000,g 10.0,4.0
# From MPC 73461
P/2005 T3 (Read),e,6.2294,27.6377,6.9211,7.582330,0.0472063,0.17512625,326.5605,09/08.0/2024,2000,g  9.0,4.0
# From MPC 73461
P/2005 T4 (SWAN),e,160.2750,25.9084,41.8570,9.353240,0.0344557,0.93035336,237.6783,09/08.0/2024,2000,g 15.0,4.0
# From MPC 75706
P/2005 T5 (Broughton),e,21.3833,57.0673,304.7551,7.264612,0.0503368,0.55211660,345.9142,09/08.0/2024,2000,g 11.0,4.0
# From MPEC 2024-DD5
P/2005 XR132 (Spacewatch),e,14.4753,265.3963,240.7667,3.758039,0.1352889,0.43255549,186.8320,09/08.0/2024,2000,g 16.0,4.0
# From unp
P/2005 Y2 (McNaught),e,19.1499,93.8063,193.3737,6.290758,0.0624668,0.46463218,89.2800,09/08.0/2024,2000,g  9.0,4.0
# From MPEC 2024-JU4
P/2006 AH2 (Sheppard-Tholen),e,10.0162,261.6464,196.0304,6.847475,0.0550058,0.41710204,20.9121,09/08.0/2024,2000,g 13.0,4.0
# From unp
P/2006 F4 (Spacewatch),e,12.4277,183.5653,31.3290,3.488518,0.1512664,0.35005938,279.1924,09/08.0/2024,2000,g  9.0,4.0
# From MPC 75707
P/2006 HR30 (Siding Spring),e,31.9354,309.7898,117.4682,7.800747,0.0452376,0.84365149,292.5068,09/08.0/2024,2000,g 11.0,4.0
# From unp
P/2006 XG16 (Spacewatch),e,9.0627,78.4045,40.9132,3.638550,0.1420076,0.41923746,192.8615,09/08.0/2024,2000,g  9.0,4.0
# From MPC 75707
P/2007 C2 (Catalina),e,8.6123,275.2431,180.1529,7.013152,0.0530682,0.47347487,330.3018,09/08.0/2024,2000,g 10.0,4.0
# From MPC 84315
C/2007 D1 (LINEAR),e,41.5079,171.1147,339.7012,1170,0.0000246,0.99252317,0.0000,06/11.3463/2007,2000,g  3.5,4.0
# From MPEC 2024-GJ3
P/2007 K2 (Gibbs),e,7.6106,188.5526,347.1758,7.340715,0.0495560,0.68573896,316.8242,09/08.0/2024,2000,g 14.0,4.0
# From MPC 60925
P/2007 Q2 (Gilmore),e,10.1973,172.2100,162.8708,5.661139,0.0731726,0.66915325,101.1269,09/08.0/2024,2000,g 16.0,4.0
# From MPC 73462
P/2007 S1 (Zhao),e,5.9642,141.3317,245.2405,3.817584,0.1321360,0.33826705,92.8022,09/08.0/2024,2000,g 13.0,4.0
# From MPEC 2024-GJ3
C/2007 S2 (Lemmon),e,16.9047,296.1207,210.1643,12.49949,0.0223031,0.55619042,130.5521,09/08.0/2024,2000,g  6.5,4.0
# From MPC 61994
P/2007 T2 (Kowalski),e,9.7505,3.3868,359.6708,3.043688,0.1856111,0.78559894,54.8296,09/08.0/2024,2000,g 18.5,4.0
# From MPEC 2024-GJ3
C/2008 E1 (Catalina),e,34.8665,188.9772,270.2845,10.76545,0.0279033,0.55255946,163.6664,09/08.0/2024,2000,g  7.0,4.0
# From MPC 64114
P/2008 O3 (Boattini),e,32.3257,47.6083,341.1945,8.209371,0.0419024,0.69647629,248.4886,09/08.0/2024,2000,g 13.0,4.0
# From MPC 75710
P/2008 Y3 (McNaught),e,38.7788,262.8432,238.0688,8.041527,0.0432211,0.44753646,248.2485,09/08.0/2024,2000,g  8.5,4.0
# From MPC 75710
P/2009 B1 (Boattini),e,22.2573,297.1064,128.9661,6.730251,0.0564491,0.63606279,322.7250,09/08.0/2024,2000,g 13.0,4.0
# From MPC 66466
C/2009 G1 (STEREO),e,108.1713,120.8058,175.5361,464.4269,0.0000985,0.99754520,0.0000,04/18.0460/2009,2000,g  9.0,4.0
# From MPC 75710
P/2009 O3 (Hill),e,16.2655,183.7147,154.4591,7.769246,0.0455130,0.68665429,253.9570,09/08.0/2024,2000,g 12.5,4.0
# From MPC 68902
P/2009 Q5 (McNaught),e,40.9667,160.2428,209.1887,7.425457,0.0487101,0.60962720,266.1574,09/08.0/2024,2000,g 10.0,4.0
# From unp
P/2009 QG31 (La Sagra),e,5.0505,346.1240,5.7059,3.570685,0.1460753,0.39929916,74.2259,09/08.0/2024,2000,g 14.0,4.0
# From MPC112389
P/2009 T2 (La Sagra),e,27.6109,216.3460,215.9501,7.710844,0.0460311,0.76742259,246.4575,09/08.0/2024,2000,g 14.0,4.0
# From MPC105235
P/2009 WX51 (Catalina),e,9.5955,31.5333,118.2753,3.082539,0.1821131,0.73951437,253.6160,09/08.0/2024,2000,g 19.0,2.0
# From MPC 74247
P/2009 Y2 (Kowalski),e,29.9738,262.0860,172.1944,6.542589,0.0588952,0.63743144,312.0205,09/08.0/2024,2000,g 13.0,4.0
# From MPC 75711
P/2010 A3 (Hill),e,14.8190,63.6438,42.2130,6.100351,0.0654142,0.73429692,347.9349,09/08.0/2024,2000,g 14.0,4.0
# From MPC 75008
P/2010 C1 (Scotti),e,9.1161,141.6109,3.0147,7.122951,0.0518459,0.26303497,283.4136,09/08.0/2024,2000,g  9.5,4.0
# From MPC 75008
P/2010 D2 (WISE),e,57.1261,319.8734,119.9624,6.720309,0.0565744,0.45177220,301.4913,09/08.0/2024,2000,g 16.0,4.0
# From MPC 75009
P/2010 E2 (Jarnac),e,15.4088,177.8084,8.2353,8.637645,0.0388250,0.72023500,205.3552,09/08.0/2024,2000,g 14.0,4.0
# From MPC 72851
P/2010 H2 (Vales),e,14.2796,64.1872,128.0510,3.832510,0.1313648,0.19740350,336.0050,09/08.0/2024,2000,g  6.0,4.0
# From MPC 70361
P/2010 H3 (SOHO),e,23.1529,77.1898,26.0584,3.035796,0.1863353,0.98554455,0.0000,05/25.1774/2026,2000,g 20.0,2.0
# From MPEC 2024-GJ3
P/2010 H4 (Scotti),e,2.3178,44.7390,179.1389,6.614092,0.0579427,0.26664746,302.8471,09/08.0/2024,2000,g 10.5,4.0
# From MPC 74637
P/2010 H5 (Scotti),e,14.0561,24.5791,174.5981,7.175132,0.0512813,0.15393619,271.9955,09/08.0/2024,2000,g 13.0,2.0
# From MPC 98558
P/2010 J3 (McMillan),e,13.2328,106.5296,157.4644,8.986792,0.0365845,0.72426893,188.0391,09/08.0/2024,2000,g 11.0,4.0
# From MPC 84315
P/2010 JC81 (WISE),e,38.8014,30.8699,12.4785,8.102855,0.0427314,0.77827642,208.3758,09/08.0/2024,2000,g  9.0,4.0
# From MPEC 2024-H77
A/2010 LN135,e,64.5824,184.7851,181.5568,22953,0.0000003,0.99992410,0.0000,05/25.7705/2011,2000,g 14.0,2.0
# From MPC 74248
P/2010 T2 (PANSTARRS),e,7.8811,57.9399,350.9296,5.629861,0.0737832,0.32918948,14.1411,09/08.0/2024,2000,g 11.5,4.0
# From MPC 82316
P/2010 U1 (Boattini),e,8.2270,280.8062,86.4758,6.490288,0.0596085,0.24878894,316.4159,09/08.0/2024,2000,g  9.5,4.0
# From MPEC 2023-J95
C/2010 U3 (Boattini),e,55.5623,42.9888,88.0565,7122,0.0000016,0.99881527,0.0000,02/26.9638/2019,2000,g  1.0,4.0
# From MPC 79021
P/2010 UH55 (Spacewatch),e,8.0367,232.8667,225.2307,6.651049,0.0574604,0.56459375,281.6662,09/08.0/2024,2000,g 11.0,4.0
# From MPEC 2024-Q34
P/2010 WK (LINEAR),e,11.4003,11.3207,41.0022,5.766919,0.0711686,0.69095004,3.5208,09/08.0/2024,2000,g 15.0,4.0
# From MPC 84021
P/2011 C2 (Gibbs),e,10.8910,11.9550,160.2886,7.411650,0.0488463,0.27036027,227.7199,09/08.0/2024,2000,g  9.0,4.0
# From MPEC 2013-Y32
P/2011 CR42 (Catalina),e,8.4591,58.7139,172.6590,3.511033,0.1498138,0.28002156,341.1085,09/08.0/2024,2000,g  9.0,4.0
# From MPC 79866
P/2011 FR143 (Lemmon),e,15.9664,190.8599,349.7285,6.876002,0.0546638,0.45202782,272.0481,09/08.0/2024,2000,g 14.0,2.0
# From MPC 82317
P/2011 JB15 (Spacewatch-Boattini),e,19.1289,153.5780,110.8269,7.377265,0.0491882,0.31463460,227.9742,09/08.0/2024,2000,g  9.0,4.0
# From MPC 87913
